OOV-CUBE (TUBSAT-30)    
1 60240U 24128F   26065.83391448  .00005102  00000+0  38847-3 0  9998
2 60240  61.9944 222.3349 0054710 111.7529 248.9397 15.02225111 90736
